IRIDIUM 112             
1 41925U 17003J   23237.90840711  .00000317  00000+0  10622-3 0  9993
2 41925  86.4030 157.2290 0002024  86.0977 274.0451 14.34217886346173
IRIDIUM 111             
1 41926U 17003K   23237.82595446  .00000296  00000+0  98727-4 0  9996
2 41926  86.4031 157.3114 0002448  87.9782 272.1694 14.34219278346147
IRIDIUM 113             
1 42803U 17039A   23237.94545506  .00000330  00000+0  11074-3 0  9993
2 42803  86.3981  30.9953 0002249  97.2585 262.8866 14.34216786324094
IRIDIUM 123             
1 42804U 17039B   23237.63808637 -.00000018  00000+0 -13416-4 0  9995
2 42804  86.3925  62.6439 0001914 100.7199 259.4213 14.34215847322816
IRIDIUM 120             
1 42805U 17039C   23237.86934865  .00000406  00000+0  13794-3 0  9991
2 42805  86.3971  30.9433 0002250  92.4533 267.6920 14.34219033324070
IRIDIUM 115             
1 42806U 17039D   23237.88674217  .00000504  00000+0  14378-3 0  9994
2 42806  86.4508  30.9190 0002432  97.9124 262.2353 14.43288884326237
IRIDIUM 118             
1 42807U 17039E   23238.01864874  .00000066  00000+0  16624-4 0  9991
2 42807  86.3927  62.4869 0002073  88.9657 271.1777 14.34215381322874
IRIDIUM 117             
1 42808U 17039F   23238.03766500  .00000119  00000+0  35541-4 0  9999
2 42808  86.3924  62.4458 0002171  92.3155 267.8289 14.34218080322900
